[{"OBJECT_NAME":"STARLINK-5526","OBJECT_ID":"2023-064BA","EPOCH":"2025-09-15T05:38:45.962016","MEAN_MOTION":14.9833319,"ECCENTRICITY":0.00025269,"INCLINATION":70,"RA_OF_ASC_NODE":186.7378,"ARG_OF_PERICENTER":273.1823,"MEAN_ANOMALY":86.9047,"EPHEMERIS_TYPE":0,"CLASSIFICATION_TYPE":"U","NORAD_CAT_ID":56496,"ELEMENT_SET_NO":999,"REV_AT_EPOCH":12995,"BSTAR":5.1461904e-5,"MEAN_MOTION_DOT":5.21e-6,"MEAN_MOTION_DDOT":0},{"OBJECT_NAME":"STARLINK-5527","OBJECT_ID":"2023-064BB","EPOCH":"2025-09-12T21:27:39.695616","MEAN_MOTION":14.98767502,"ECCENTRICITY":0.00035217,"INCLINATION":70.0004,"RA_OF_ASC_NODE":192.6144,"ARG_OF_PERICENTER":282.9469,"MEAN_ANOMALY":77.1297,"EPHEMERIS_TYPE":0,"CLASSIFICATION_TYPE":"U","NORAD_CAT_ID":56497,"ELEMENT_SET_NO":999,"REV_AT_EPOCH":12960,"BSTAR":0.0045744199,"MEAN_MOTION_DOT":0.00055551,"MEAN_MOTION_DDOT":0},{"OBJECT_NAME":"STARLINK-5522","OBJECT_ID":"2023-064BC","EPOCH":"2025-09-14T23:26:15.228960","MEAN_MOTION":14.98328956,"ECCENTRICITY":0.00030404,"INCLINATION":70.0001,"RA_OF_ASC_NODE":187.4404,"ARG_OF_PERICENTER":270.551,"MEAN_ANOMALY":89.5301,"EPHEMERIS_TYPE":0,"CLASSIFICATION_TYPE":"U","NORAD_CAT_ID":56498,"ELEMENT_SET_NO":999,"REV_AT_EPOCH":12991,"BSTAR":1.7698188e-5,"MEAN_MOTION_DOT":1.18e-6,"MEAN_MOTION_DDOT":0},{"OBJECT_NAME":"STARLINK-5775","OBJECT_ID":"2023-065A","EPOCH":"2025-09-15T05:01:59.947104","MEAN_MOTION":15.02535603,"ECCENTRICITY":0.00012382,"INCLINATION":43.0038,"RA_OF_ASC_NODE":84.2291,"ARG_OF_PERICENTER":267.786,"MEAN_ANOMALY":92.284,"EPHEMERIS_TYPE":0,"CLASSIFICATION_TYPE":"U","NORAD_CAT_ID":56503,"ELEMENT_SET_NO":999,"REV_AT_EPOCH":13022,"BSTAR":-5.691356e-6,"MEAN_MOTION_DOT":-2.8e-6,"MEAN_MOTION_DDOT":0},{"OBJECT_NAME":"STARLINK-5716","OBJECT_ID":"2023-065B","EPOCH":"2025-09-15T04:57:12.182400","MEAN_MOTION":15.02535868,"ECCENTRICITY":0.00012905,"INCLINATION":43.0037,"RA_OF_ASC_NODE":84.2024,"ARG_OF_PERICENTER":267.6338,"MEAN_ANOMALY":92.4356,"EPHEMERIS_TYPE":0,"CLASSIFICATION_TYPE":"U","NORAD_CAT_ID":56504,"ELEMENT_SET_NO":999,"REV_AT_EPOCH":13022,"BSTAR":1.2393594e-5,"MEAN_MOTION_DOT":-3.6e-7,"MEAN_MOTION_DDOT":0},{"OBJECT_NAME":"STARLINK-5763","OBJECT_ID":"2023-065C","EPOCH":"2025-09-15T04:54:00.348480","MEAN_MOTION":15.02536608,"ECCENTRICITY":0.00013055,"INCLINATION":43.0028,"RA_OF_ASC_NODE":84.1851,"ARG_OF_PERICENTER":272.4867,"MEAN_ANOMALY":87.5826,"EPHEMERIS_TYPE":0,"CLASSIFICATION_TYPE":"U","NORAD_CAT_ID":56505,"ELEMENT_SET_NO":999,"REV_AT_EPOCH":13022,"BSTAR":3.2118432e-5,"MEAN_MOTION_DOT":2.3e-6,"MEAN_MOTION_DDOT":0},{"OBJECT_NAME":"STARLINK-5340","OBJECT_ID":"2023-065D","EPOCH":"2025-09-15T05:05:34.155168","MEAN_MOTION":15.0253133,"ECCENTRICITY":0.00012008,"INCLINATION":43.0039,"RA_OF_ASC_NODE":71.2284,"ARG_OF_PERICENTER":265.575,"MEAN_ANOMALY":94.4956,"EPHEMERIS_TYPE":0,"CLASSIFICATION_TYPE":"U","NORAD_CAT_ID":56506,"ELEMENT_SET_NO":999,"REV_AT_EPOCH":13037,"BSTAR":9.823849e-6,"MEAN_MOTION_DOT":-7.1e-7,"MEAN_MOTION_DDOT":0},{"OBJECT_NAME":"STARLINK-5333","OBJECT_ID":"2023-065E","EPOCH":"2025-09-15T03:25:46.747488","MEAN_MOTION":15.02537649,"ECCENTRICITY":0.00012847,"INCLINATION":43.0041,"RA_OF_ASC_NODE":45.5437,"ARG_OF_PERICENTER":264.6674,"MEAN_ANOMALY":95.4021,"EPHEMERIS_TYPE":0,"CLASSIFICATION_TYPE":"U","NORAD_CAT_ID":56507,"ELEMENT_SET_NO":999,"REV_AT_EPOCH":13066,"BSTAR":4.5872618e-5,"MEAN_MOTION_DOT":4.16e-6,"MEAN_MOTION_DDOT":0},{"OBJECT_NAME":"STARLINK-5335","OBJECT_ID":"2023-065F","EPOCH":"2025-09-15T04:49:12.737568","MEAN_MOTION":15.0253608,"ECCENTRICITY":0.00012038,"INCLINATION":43.0034,"RA_OF_ASC_NODE":84.1608,"ARG_OF_PERICENTER":268.0613,"MEAN_ANOMALY":92.0091,"EPHEMERIS_TYPE":0,"CLASSIFICATION_TYPE":"U","NORAD_CAT_ID":56508,"ELEMENT_SET_NO":999,"REV_AT_EPOCH":13022,"BSTAR":2.1952979e-5,"MEAN_MOTION_DOT":9.3e-7,"MEAN_MOTION_DDOT":0},{"OBJECT_NAME":"STARLINK-5334","OBJECT_ID":"2023-065G","EPOCH":"2025-09-14T22:13:30.995616","MEAN_MOTION":15.02536186,"ECCENTRICITY":0.00012954,"INCLINATION":43.0045,"RA_OF_ASC_NODE":85.5382,"ARG_OF_PERICENTER":265.35,"MEAN_ANOMALY":94.7194,"EPHEMERIS_TYPE":0,"CLASSIFICATION_TYPE":"U","NORAD_CAT_ID":56509,"ELEMENT_SET_NO":999,"REV_AT_EPOCH":13018,"BSTAR":5.0472307e-5,"MEAN_MOTION_DOT":4.78e-6,"MEAN_MOTION_DDOT":0},{"OBJECT_NAME":"STARLINK-5339","OBJECT_ID":"2023-065H","EPOCH":"2025-09-15T04:46:00.862176","MEAN_MOTION":15.02537481,"ECCENTRICITY":0.00013042,"INCLINATION":43.0039,"RA_OF_ASC_NODE":84.1442,"ARG_OF_PERICENTER":264.2182,"MEAN_ANOMALY":95.8512,"EPHEMERIS_TYPE":0,"CLASSIFICATION_TYPE":"U","NORAD_CAT_ID":56510,"ELEMENT_SET_NO":999,"REV_AT_EPOCH":13022,"BSTAR":2.3180792e-5,"MEAN_MOTION_DOT":1.1e-6,"MEAN_MOTION_DDOT":0},{"OBJECT_NAME":"STARLINK-5351","OBJECT_ID":"2023-065J","EPOCH":"2025-09-14T22:08:43.353600","MEAN_MOTION":15.02533835,"ECCENTRICITY":0.00014428,"INCLINATION":43.0029,"RA_OF_ASC_NODE":85.5069,"ARG_OF_PERICENTER":267.792,"MEAN_ANOMALY":92.2757,"EPHEMERIS_TYPE":0,"CLASSIFICATION_TYPE":"U","NORAD_CAT_ID":56511,"ELEMENT_SET_NO":999,"REV_AT_EPOCH":13018,"BSTAR":-2.9661232e-5,"MEAN_MOTION_DOT":-6.04e-6,"MEAN_MOTION_DDOT":0},{"OBJECT_NAME":"STARLINK-5349","OBJECT_ID":"2023-065K","EPOCH":"2025-09-14T22:18:18.353376","MEAN_MOTION":15.02533785,"ECCENTRICITY":0.00011228,"INCLINATION":43.0051,"RA_OF_ASC_NODE":85.5536,"ARG_OF_PERICENTER":270.9863,"MEAN_ANOMALY":89.085,"EPHEMERIS_TYPE":0,"CLASSIFICATION_TYPE":"U","NORAD_CAT_ID":56512,"ELEMENT_SET_NO":999,"REV_AT_EPOCH":13018,"BSTAR":1.3655979e-5,"MEAN_MOTION_DOT":-1.9e-7,"MEAN_MOTION_DDOT":0},{"OBJECT_NAME":"STARLINK-5329","OBJECT_ID":"2023-065L","EPOCH":"2025-09-14T22:07:07.084128","MEAN_MOTION":15.02535768,"ECCENTRICITY":0.00011133,"INCLINATION":43.0023,"RA_OF_ASC_NODE":85.5014,"ARG_OF_PERICENTER":269.6254,"MEAN_ANOMALY":90.4461,"EPHEMERIS_TYPE":0,"CLASSIFICATION_TYPE":"U","NORAD_CAT_ID":56513,"ELEMENT_SET_NO":999,"REV_AT_EPOCH":13018,"BSTAR":6.4976465e-5,"MEAN_MOTION_DOT":6.74e-6,"MEAN_MOTION_DDOT":0},{"OBJECT_NAME":"STARLINK-5348","OBJECT_ID":"2023-065N","EPOCH":"2025-09-14T22:02:19.666752","MEAN_MOTION":15.02536288,"ECCENTRICITY":0.00015059,"INCLINATION":43.0033,"RA_OF_ASC_NODE":85.4776,"ARG_OF_PERICENTER":270.46,"MEAN_ANOMALY":89.607,"EPHEMERIS_TYPE":0,"CLASSIFICATION_TYPE":"U","NORAD_CAT_ID":56515,"ELEMENT_SET_NO":999,"REV_AT_EPOCH":13018,"BSTAR":9.6755316e-5,"MEAN_MOTION_DOT":1.104e-5,"MEAN_MOTION_DDOT":0},{"OBJECT_NAME":"STARLINK-5342","OBJECT_ID":"2023-065P","EPOCH":"2025-09-13T06:17:06.827712","MEAN_MOTION":15.02535343,"ECCENTRICITY":0.00011324,"INCLINATION":43.0036,"RA_OF_ASC_NODE":94.548,"ARG_OF_PERICENTER":264.3869,"MEAN_ANOMALY":95.6845,"EPHEMERIS_TYPE":0,"CLASSIFICATION_TYPE":"U","NORAD_CAT_ID":56516,"ELEMENT_SET_NO":999,"REV_AT_EPOCH":12993,"BSTAR":2.4802818e-5,"MEAN_MOTION_DOT":1.31e-6,"MEAN_MOTION_DDOT":0}]
