STARLINK-5526           
1 56496U 23064BA  25258.23525419  .00000521  00000+0  51462-4 0  9997
2 56496  70.0000 186.7378 0002526 273.1823  86.9047 14.98333190129951
STARLINK-5527           
1 56497U 23064BB  25255.89420944  .00055551  00000+0  45744-2 0  9991
2 56497  70.0004 192.6144 0003521 282.9469  77.1297 14.98767502129602
STARLINK-5522           
1 56498U 23064BC  25257.97656515  .00000118  00000+0  17698-4 0  9996
2 56498  70.0001 187.4404 0003040 270.5510  89.5301 14.98328956129910
STARLINK-5775           
1 56503U 23065A   25258.20972161 -.00000280  00000+0 -56914-5 0  9996
2 56503  43.0038  84.2291 0001238 267.7860  92.2840 15.02535603130228
STARLINK-5716           
1 56504U 23065B   25258.20639100 -.00000036  00000+0  12394-4 0  9991
2 56504  43.0037  84.2024 0001290 267.6338  92.4356 15.02535868130226
STARLINK-5763           
1 56505U 23065C   25258.20417070  .00000230  00000+0  32118-4 0  9993
2 56505  43.0028  84.1851 0001305 272.4867  87.5826 15.02536608130222
STARLINK-5340           
1 56506U 23065D   25258.21220087 -.00000071  00000+0  98238-5 0  9995
2 56506  43.0039  71.2284 0001200 265.5750  94.4956 15.02531330130374
STARLINK-5333           
1 56507U 23065E   25258.14290217  .00000416  00000+0  45873-4 0  9998
2 56507  43.0041  45.5437 0001284 264.6674  95.4021 15.02537649130664
STARLINK-5335           
1 56508U 23065F   25258.20084187  .00000093  00000+0  21953-4 0  9997
2 56508  43.0034  84.1608 0001203 268.0613  92.0091 15.02536080130228
STARLINK-5334           
1 56509U 23065G   25257.92605319  .00000478  00000+0  50472-4 0  9997
2 56509  43.0045  85.5382 0001295 265.3500  94.7194 15.02536186130186
STARLINK-5339           
1 56510U 23065H   25258.19862109  .00000110  00000+0  23181-4 0  9991
2 56510  43.0039  84.1442 0001304 264.2182  95.8512 15.02537481130228
STARLINK-5351           
1 56511U 23065J   25257.92272400 -.00000604  00000+0 -29661-4 0  9990
2 56511  43.0029  85.5069 0001442 267.7920  92.2757 15.02533835130185
STARLINK-5349           
1 56512U 23065K   25257.92937909 -.00000019  00000+0  13656-4 0  9999
2 56512  43.0051  85.5536 0001122 270.9863  89.0850 15.02533785130189
STARLINK-5329           
1 56513U 23065L   25257.92160977  .00000674  00000+0  64976-4 0  9990
2 56513  43.0023  85.5014 0001113 269.6254  90.4461 15.02535768130186
STARLINK-5348           
1 56515U 23065N   25257.91828318  .00001104  00000+0  96755-4 0  9990
2 56515  43.0033  85.4776 0001505 270.4600  89.6070 15.02536288130187
STARLINK-5342           
1 56516U 23065P   25256.26188458  .00000131  00000+0  24803-4 0  9996
2 56516  43.0036  94.5480 0001132 264.3869  95.6845 15.02535343129938
